GLOBALSTAR M063         
1 26081U 00008A   24202.22317524  .00000015  00000+0  14306-2 0  9992
2 26081  51.9941 265.8396 0004350  41.9510 356.2552 11.86157804118244
GLOBALSTAR M062         
1 26082U 00008B   24201.72942446 -.00000197  00000+0 -70633-3 0  9993
2 26082  51.9872 353.4222 0007805 121.2519 252.3933 12.43440144455260
GLOBALSTAR M060         
1 26083U 00008C   24201.96340672 -.00000090  00000+0  79323-5 0  9991
2 26083  52.0010 265.7431 0003745 170.6229   1.7361 12.17637286111894
GLOBALSTAR M064         
1 26084U 00008D   24201.78045168 -.00000090  00000+0 -90418-4 0  9992
2 26084  52.0051   9.7501 0002139 120.9128 239.1915 11.88520297127570
GLOBALSTAR M065         
1 31571U 07020A   24201.89358269 -.00000076  00000+0  15232-3 0  9994
2 31571  51.9878 157.6346 0009873 293.3328 114.5756 12.61974505791451
GLOBALSTAR M069         
1 31573U 07020C   24201.96650359 -.00000082  00000+0  12328-3 0  9999
2 31573  51.9947 113.1965 0000889  26.5876  54.5195 12.62277376792595
GLOBALSTAR M072         
1 31574U 07020D   24201.88044707 -.00000074  00000+0  16875-3 0  9997
2 31574  52.0057 209.4290 0000490 275.0216 152.3798 12.62260182790857
GLOBALSTAR M071         
1 31576U 07020F   24201.53813449 -.00000080  00000+0  13011-3 0  9994
2 31576  52.0062 119.6945 0000950  53.9117 117.6767 12.62270013453724
